STARLINK-4502           
1 53557U 22101AG  26068.39774636 -.00000098  00000+0  11913-4 0  9994
2 53557  53.2171  65.4309 0001319  90.3610 269.7533 15.08837837196917
CURIUM ONE              
1 60242U 24128H   26068.68697111  .00012574  00000+0  74107-3 0  9992
2 60242  61.9790 197.7537 0050891 110.7183 249.9377 15.10847276 91418
